NORAD_CAT_ID,OBJECT_NAME,OBJECT_TYPE,EPOCH,MEAN_MOTION,ECCENTRICITY,INCLINATION,RA_OF_ASC_NODE,ARG_OF_PERICENTER,MEAN_ANOMALY,BSTAR,MEAN_MOTION_DOT,MEAN_MOTION_DDOT,TLE_LINE0,TLE_LINE1,TLE_LINE2,SEMIMAJOR_AXIS,PERIOD,APOGEE,PERIGEE,DECAYED
53251.0,STARLINK-4129,PAYLOAD,2022-12-30 11:21:21,15.08841769,0.0002185,53.216,24.9884,39.4964,320.6187,0.00070144,0.00010894,0.0,0 STARLINK-4129,1 53251U 22086K   22364.47316289  .00010894  00000-0  70144-3 0  9992,2 53251  53.2160  24.9884 0002185  39.4964 320.6187 15.08841769 24979,6917.875,95.437,541.252,538.2280000000002,0.0
53251.0,STARLINK-4129,PAYLOAD,2022-12-31 01:39:48,15.08877175,0.0002239,53.216,22.3117,41.7789,318.3374,0.0014685,0.00023185,0.0,0 STARLINK-4129,1 53251U 22086K   22365.06931540  .00023185  00000-0  14685-2 0  9995,2 53251  53.2160  22.3117 0002239  41.7789 318.3374 15.08877175 25064,6917.767,95.435,541.181,538.0830000000002,0.0
53251.0,STARLINK-4129,PAYLOAD,2022-12-31 11:12:07,15.08873763,0.000214,53.2163,20.5286,38.1722,321.9421,0.00068024,0.00010565,0.0,0 STARLINK-4129,1 53251U 22086K   22365.46674825  .00010565  00000-0  68024-3 0  9994,2 53251  53.2163  20.5286 0002140  38.1722 321.9421 15.08873763 25121,6917.776999999999,95.435,541.123,538.1619999999998,0.0
53251.0,STARLINK-4129,PAYLOAD,2023-01-01 07:52:07,15.08826305,0.0002096,53.2164,16.6622,33.8492,326.2633,0.00042148,6.424e-05,0.0,0 STARLINK-4129,1 53251U 22086K   23001.32786978  .00006424  00000-0  42148-3 0  9998,2 53251  53.2164  16.6622 0002096  33.8492 326.2633 15.08826305 25255,6917.922,95.438,541.237,538.337,0.0
53251.0,STARLINK-4129,PAYLOAD,2023-01-01 17:24:27,15.08821941,0.0002072,53.217,14.8795,44.9744,315.1416,5.4113e-05,5.73e-06,0.0,0 STARLINK-4129,1 53251U 22086K   23001.72531536  .00000573  00000-0  54113-4 0  9995,2 53251  53.2170  14.8795 0002072  44.9744 315.1416 15.08821941 25493,6917.936,95.439,541.234,538.367,0.0
53251.0,STARLINK-4129,PAYLOAD,2023-01-02 07:42:55,15.08847972,0.0002168,53.2164,12.2019,43.5619,316.5544,0.00066672,0.00010341,0.0,0 STARLINK-4129,1 53251U 22086K   23002.32147585  .00010341  00000-0  66672-3 0  9995,2 53251  53.2164  12.2019 0002168  43.5619 316.5544 15.08847972 25588,6917.856,95.437,541.221,538.221,0.0
53251.0,STARLINK-4129,PAYLOAD,2023-01-02 17:15:14,15.08836126,0.0002058,53.2152,10.4194,41.3202,318.7946,0.00027791,4.137e-05,0.0,0 STARLINK-4129,1 53251U 22086K   23002.71891982  .00004137  00000-0  27791-3 0  9990,2 53251  53.2152  10.4194 0002058  41.3202 318.7946 15.08836126 25467,6917.892,95.438,541.181,538.3340000000002,0.0
53251.0,STARLINK-4129,PAYLOAD,2023-01-03 05:58:19,15.08838285,0.0002153,53.2139,8.0372,30.9067,329.2051,0.00020059,2.906e-05,0.0,0 STARLINK-4129,1 53251U 22086K   23003.24883988  .00002906  00000-0  20059-3 0  9998,2 53251  53.2139   8.0372 0002153  30.9067 329.2051 15.08838285 25723,6917.886,95.438,541.24,538.261,0.0
53251.0,STARLINK-4129,PAYLOAD,2023-01-04 08:59:53,15.08840145,0.0002279999999999,53.2158,2.9829,39.5299,320.5859,0.00014375,2e-05,0.0,0 STARLINK-4129,1 53251U 22086K   23004.37492357  .00002000  00000-0  14375-3 0  9998,2 53251  53.2158   2.9829 0002280  39.5299 320.5859 15.08840145 25714,6917.88,95.438,541.322,538.168,0.0
53251.0,STARLINK-4129,PAYLOAD,2023-01-04 16:56:48,15.08859098,0.0002299,53.2176,1.4974,43.4289,316.6884,0.00048241,7.402e-05,0.0,0 STARLINK-4129,1 53251U 22086K   23004.70611609  .00007402  00000-0  48241-3 0  9998,2 53251  53.2176   1.4974 0002299  43.4289 316.6884 15.08859098 25768,6917.821999999999,95.436,541.2769999999998,538.097,0.0
53251.0,STARLINK-4129,PAYLOAD,2023-01-05 10:26:02,15.08862021,0.0001984,53.2146,358.2238,36.7908,323.322,0.00043865,6.704e-05,0.0,0 STARLINK-4129,1 53251U 22086K   23005.43474797  .00006704  00000-0  43865-3 0  9995,2 53251  53.2146 358.2238 0001984  36.7908 323.3220 15.08862021 25875,6917.813,95.436,541.0509999999998,538.306,0.0
53251.0,STARLINK-4129,PAYLOAD,2023-01-05 16:47:34,15.08858927,0.0002028,53.2155,357.0351,36.9595,323.1537,0.00025494,3.774e-05,0.0,0 STARLINK-4129,1 53251U 22086K   23005.69970589  .00003774  00000-0  25494-3 0  9995,2 53251  53.2155 357.0351 0002028  36.9595 323.1537 15.08858927 26096,6917.823,95.436,541.09,538.285,0.0
53251.0,STARLINK-4129,PAYLOAD,2023-01-06 05:30:39,15.08858326,0.0002873,53.216,354.6557,53.5664,306.5592,0.00027248,4.053e-05,0.0,0 STARLINK-4129,1 53251U 22086K   23006.22962555  .00004053  00000-0  27248-3 0  9999,2 53251  53.2160 354.6557 0002873  53.5664 306.5592 15.08858326 25990,6917.824000000001,95.436,541.677,537.702,0.0
53251.0,STARLINK-4129,PAYLOAD,2023-01-06 10:16:49,15.08837778,0.0001699,53.2161,353.7632,33.841,326.269,-0.00016378,-2.894e-05,0.0,0 STARLINK-4129,1 53251U 22086K   23006.42835154 -.00002894  00000-0 -16378-3 0  9990,2 53251  53.2161 353.7632 0001699  33.8410 326.2690 15.08837778 26021,6917.887,95.438,540.928,538.577,0.0
53251.0,STARLINK-4129,PAYLOAD,2023-01-07 05:21:27,15.08846599,0.0002018,53.2165,350.1962,31.0364,329.0747,0.000325,4.889e-05,0.0,0 STARLINK-4129,1 53251U 22086K   23007.22323179  .00004889  00000-0  32500-3 0  9997,2 53251  53.2165 350.1962 0002018  31.0364 329.0747 15.08846599 26324,6917.86,95.437,541.121,538.3290000000002,0.0
53251.0,STARLINK-4129,PAYLOAD,2023-01-07 08:32:13,15.0884621,0.0001984,53.2164,349.6013,29.1562,330.9541,0.00064915,0.0001006,0.0,0 STARLINK-4129,1 53251U 22086K   23007.35571370  .00010060  00000-0  64915-3 0  9992,2 53251  53.2164 349.6013 0001984  29.1562 330.9541 15.08846210 26167,6917.861,95.437,541.099,538.354,0.0
53251.0,STARLINK-4129,PAYLOAD,2023-01-07 22:50:42,15.08830647,0.0002466,53.2152,346.9240000000001,49.1318,310.9887,0.00028432,4.238e-05,0.0,0 STARLINK-4129,1 53251U 22086K   23007.95188593  .00004238  00000-0  28432-3 0  9993,2 53251  53.2152 346.9240 0002466  49.1318 310.9887 15.08830647 26251,6917.9090000000015,95.438,541.48,538.068,0.0
53251.0,STARLINK-4129,PAYLOAD,2023-01-08 08:23:01,15.08832789,0.0002052,53.2166,345.1404,35.2905,324.8223,0.00055664,8.58e-05,0.0,0 STARLINK-4129,1 53251U 22086K   23008.34932841  .00008580  00000-0  55664-3 0  9991,2 53251  53.2166 345.1404 0002052  35.2905 324.8223 15.08832789 26491,6917.901999999999,95.438,541.187,538.3480000000002,0.0
53251.0,STARLINK-4129,PAYLOAD,2023-01-08 14:44:34,15.08849965,0.0001996,53.2172,343.9513,32.8742,327.2374,0.0012554,0.00019754,0.0,0 STARLINK-4129,1 53251U 22086K   23008.61428694  .00019754  00000-0  12554-2 0  9992,2 53251  53.2172 343.9513 0001996  32.8742 327.2374 15.08849965 26356,6917.85,95.437,541.096,538.3340000000002,0.0
53251.0,STARLINK-4129,PAYLOAD,2023-01-08 22:41:30,15.08855239,0.0001888,53.218,342.4659,42.3102,317.8036,0.001,0.00015669,0.0,0 STARLINK-4129,1 53251U 22086K   23008.94548664  .00015669  00000-0  10000-2 0  9993,2 53251  53.2180 342.4659 0001888  42.3102 317.8036 15.08855239 26582,6917.834,95.437,541.005,538.393,0.0
53251.0,STARLINK-4129,PAYLOAD,2023-01-09 06:38:25,15.08855052,0.0001988,53.2179,340.9779,34.1747,325.9372,0.00058583,9.052e-05,0.0,0 STARLINK-4129,1 53251U 22086K   23009.27668323  .00009052  00000-0  58583-3 0  9993,2 53251  53.2179 340.9779 0001988  34.1747 325.9372 15.08855052 26453,6917.834,95.437,541.075,538.3240000000002,0.0
53251.0,STARLINK-4129,PAYLOAD,2023-01-10 04:53:49,15.08845926,0.0001933,53.2167,336.8146,28.6077,331.5021,0.00019524,2.821e-05,0.0,0 STARLINK-4129,1 53251U 22086K   23010.20404116  .00002821  00000-0  19524-3 0  9995,2 53251  53.2167 336.8146 0001933  28.6077 331.5021 15.08845926 26594,6917.861999999999,95.437,541.064,538.39,0.0
53251.0,STARLINK-4129,PAYLOAD,2023-01-10 08:04:35,15.08845737,0.0001894,53.2168,336.2193,33.3826,326.7285,0.00018349,2.634e-05,0.0,0 STARLINK-4129,1 53251U 22086K   23010.33652182  .00002634  00000-0  18349-3 0  9993,2 53251  53.2168 336.2193 0001894  33.3826 326.7285 15.08845737 26792,6917.863,95.437,541.038,538.418,0.0
53251.0,STARLINK-4129,PAYLOAD,2023-01-10 14:26:08,15.08838489,0.0001886,53.2171,335.0309,38.6008,321.5119,-2.7809e-06,-3.32e-06,0.0,0 STARLINK-4129,1 53251U 22086K   23010.60148369 -.00000332  00000-0 -27809-5 0  9998,2 53251  53.2171 335.0309 0001886  38.6008 321.5119 15.08838489 26653,6917.885,95.438,541.055,538.445,0.0
53251.0,STARLINK-4129,PAYLOAD,2023-01-11 04:44:36,15.08841974,0.0001938,53.2173,332.3558,41.7608,318.3532,6.5613e-05,7.56e-06,0.0,0 STARLINK-4129,1 53251U 22086K   23011.19764463  .00000756  00000-0  65613-4 0  9994,2 53251  53.2173 332.3558 0001938  41.7608 318.3532 15.08841974 26926,6917.874,95.437,541.08,538.399,0.0
53251.0,STARLINK-4129,PAYLOAD,2023-01-11 20:38:27,15.08851295,0.0002035,53.2172,329.3805,38.2459,321.8678,0.0003565,5.392e-05,0.0,0 STARLINK-4129,1 53251U 22086K   23011.86004217  .00005392  00000-0  35650-3 0  9990,2 53251  53.2172 329.3805 0002035  38.2459 321.8678 15.08851295 27029,6917.846,95.437,541.119,538.303,0.0
53251.0,STARLINK-4129,PAYLOAD,2023-01-12 01:24:37,15.08850886,0.0002093,53.217,328.4875,38.0586,322.0554,0.00035829,5.42e-05,0.0,0 STARLINK-4129,1 53251U 22086K   23012.05876242  .00005420  00000-0  35829-3 0  9997,2 53251  53.2170 328.4875 0002093  38.0586 322.0554 15.08850886 26870,6917.847,95.437,541.16,538.264,0.0
53251.0,STARLINK-4129,PAYLOAD,2023-01-12 14:07:42,15.08834335,0.0001975,53.2166,326.1090000000001,46.6037,313.512,-0.00015368,-2.733e-05,0.0,0 STARLINK-4129,1 53251U 22086K   23012.58868639 -.00002733  00000-0 -15368-3 0  9998,2 53251  53.2166 326.1090 0001975  46.6037 313.5120 15.08834335 26957,6917.898,95.438,541.129,538.396,0.0
53251.0,STARLINK-4129,PAYLOAD,2023-01-12 23:40:02,15.08822908,0.0002044,53.2168,324.3232,52.9941,307.1238,-0.00021817,-3.757e-05,0.0,0 STARLINK-4129,1 53251U 22086K   23012.98613601 -.00003757  00000-0 -21817-3 0  9992,2 53251  53.2168 324.3232 0002044  52.9941 307.1238 15.08822908 27019,6917.933000000001,95.439,541.212,538.384,0.0
